{"type": "FeatureCollection", "features": [ {"type": "Feature", "properties": {"norad_id": 35890, "name": "COSMOS 2251 DEB", "group": "cosmos-2251-debris", "lat": -51.38417175877486, "lon": -158.0303055513432, "alt_km": 678.1370781169062, "timestamp": "2025-12-22T23:36:21.113574+00:00", "meta": {"OBJECT_NAME": "COSMOS 2251 DEB", "OBJECT_ID": "1993-036AUD", "EPOCH": "2025-12-16T22:53:46.078656", "MEAN_MOTION": 14.57543512, "ECCENTRICITY": 0.00539437, "INCLINATION": 73.9365, "RA_OF_ASC_NODE": 234.6414, "ARG_OF_PERICENTER": 358.5125, "MEAN_ANOMALY": 1.5869, "EPHEMERIS_TYPE": 0, "CLASSIFICATION_TYPE": "U", "NORAD_CAT_ID": 35890, "ELEMENT_SET_NO": 999, "REV_AT_EPOCH": 65212, "BSTAR": 0.0012168345, "MEAN_MOTION_DOT": 5.621e-05, "MEAN_MOTION_DDOT": 0}, "tle": {"line1": "1 35890U 93036AUD 25350.95400554  .00005621  00000+0  12168-2 0  9996", "line2": "2 35890  73.9365 234.6414 0053943 358.5125   1.5869 14.57543512652129"}}, "geometry": {"type": "Point", "coordinates": [-158.0303055513432, -51.38417175877486]}}, {"type": "Feature", "properties": {"norad_id": 35891, "name": "COSMOS 2251 DEB", "group": "cosmos-2251-debris", "lat": 48.509198671334595, "lon": -127.06233902113915, "alt_km": 449.7009702923906, "timestamp": "2025-12-22T23:36:21.113584+00:00", "meta": {"OBJECT_NAME": "COSMOS 2251 DEB", "OBJECT_ID": "1993-036AUE", "EPOCH": "2025-12-22T12:05:17.898432", "MEAN_MOTION": 15.34098884, "ECCENTRICITY": 0.00417978, "INCLINATION": 73.9888, "RA_OF_ASC_NODE": 72.9142, "ARG_OF_PERICENTER": 201.5806, "MEAN_ANOMALY": 158.364, "EPHEMERIS_TYPE": 0, "CLASSIFICATION_TYPE": "U", "NORAD_CAT_ID": 35891, "ELEMENT_SET_NO": 999, "REV_AT_EPOCH": 67370, "BSTAR": 0.001391637, "MEAN_MOTION_DOT": 0.00047495, "MEAN_MOTION_DDOT": 0}, "tle": {"line1": "1 35891U 93036AUE 25356.50367938  .00047495  00000+0  13916-2 0  9999", "line2": "2 35891  73.9888  72.9142 0041797 201.5806 158.3640 15.34098884673706"}}, "geometry": {"type": "Point", "coordinates": [-127.06233902113915, 48.509198671334595]}}, {"type": "Feature", "properties": {"norad_id": 35895, "name": "COSMOS 2251 DEB", "group": "cosmos-2251-debris", "lat": -67.81496559026436, "lon": -165.57343627095966, "alt_km": 1038.651856914812, "timestamp": "2025-12-22T23:36:21.113594+00:00", "meta": {"OBJECT_NAME": "COSMOS 2251 DEB", "OBJECT_ID": "1993-036AUJ", "EPOCH": "2025-12-20T05:18:32.719392", "MEAN_MOTION": 14.01557935, "ECCENTRICITY": 0.0199682, "INCLINATION": 74.0503, "RA_OF_ASC_NODE": 334.6863, "ARG_OF_PERICENTER": 71.097, "MEAN_ANOMALY": 291.1695, "EPHEMERIS_TYPE": 0, "CLASSIFICATION_TYPE": "U", "NORAD_CAT_ID": 35895, "ELEMENT_SET_NO": 999, "REV_AT_EPOCH": 59117, "BSTAR": 0.0011304, "MEAN_MOTION_DOT": 2.013e-05, "MEAN_MOTION_DDOT": 0}, "tle": {"line1": "1 35895U 93036AUJ 25354.22121203  .00002013  00000+0  11304-2 0  9999", "line2": "2 35895  74.0503 334.6863 0199682  71.0970 291.1695 14.01557935591179"}}, "geometry": {"type": "Point", "coordinates": [-165.57343627095966, -67.81496559026436]}}, {"type": "Feature", "properties": {"norad_id": 35898, "name": "COSMOS 2251 DEB", "group": "cosmos-2251-debris", "lat": -43.758197757139186, "lon": -99.20764267281808, "alt_km": 601.5304388211171, "timestamp": "2025-12-22T23:36:21.113604+00:00", "meta": {"OBJECT_NAME": "COSMOS 2251 DEB", "OBJECT_ID": "1993-036AUM", "EPOCH": "2025-12-17T02:32:30.687072", "MEAN_MOTION": 14.94779467, "ECCENTRICITY": 0.00792454, "INCLINATION": 73.9918, "RA_OF_ASC_NODE": 288.6268, "ARG_OF_PERICENTER": 70.8936, "MEAN_ANOMALY": 307.548, "EPHEMERIS_TYPE": 0, "CLASSIFICATION_TYPE": "U", "NORAD_CAT_ID": 35898, "ELEMENT_SET_NO": 999, "REV_AT_EPOCH": 66875, "BSTAR": 0.00065982938, "MEAN_MOTION_DOT": 7.606e-05, "MEAN_MOTION_DDOT": 0}, "tle": {"line1": "1 35898U 93036AUM 25351.10591073  .00007606  00000+0  65983-3 0  9998", "line2": "2 35898  73.9918 288.6268 0079245  70.8936 307.5480 14.94779467668759"}}, "geometry": {"type": "Point", "coordinates": [-99.20764267281808, -43.758197757139186]}}, {"type": "Feature", "properties": {"norad_id": 35901, "name": "COSMOS 2251 DEB", "group": "cosmos-2251-debris", "lat": 62.282645218103376, "lon": 34.848554861426265, "alt_km": 536.4083517915451, "timestamp": "2025-12-22T23:36:21.113614+00:00", "meta": {"OBJECT_NAME": "COSMOS 2251 DEB", "OBJECT_ID": "1993-036AUQ", "EPOCH": "2025-12-21T07:33:55.014048", "MEAN_MOTION": 15.07789315, "ECCENTRICITY": 0.0007598, "INCLINATION": 74.0113, "RA_OF_ASC_NODE": 5.2093, "ARG_OF_PERICENTER": 337.8636, "MEAN_ANOMALY": 36.6976, "EPHEMERIS_TYPE": 0, "CLASSIFICATION_TYPE": "U", "NORAD_CAT_ID": 35901, "ELEMENT_SET_NO": 999, "REV_AT_EPOCH": 86256, "BSTAR": 0.0027352, "MEAN_MOTION_DOT": 0.00042089, "MEAN_MOTION_DDOT": 0}, "tle": {"line1": "1 35901U 93036AUQ 25355.31522007  .00042089  00000+0  27352-2 0  9992", "line2": "2 35901  74.0113   5.2093 0007598 337.8636  36.6976 15.07789315862560"}}, "geometry": {"type": "Point", "coordinates": [34.848554861426265, 62.282645218103376]}}, {"type": "Feature", "properties": {"norad_id": 35902, "name": "COSMOS 2251 DEB", "group": "cosmos-2251-debris", "lat": -72.74040941009572, "lon": 103.59743365042834, "alt_km": 777.513305035428, "timestamp": "2025-12-22T23:36:21.113624+00:00", "meta": {"OBJECT_NAME": "COSMOS 2251 DEB", "OBJECT_ID": "1993-036AUR", "EPOCH": "2025-12-19T15:17:09.843072", "MEAN_MOTION": 14.26937143, "ECCENTRICITY": 0.0102282, "INCLINATION": 73.9823, "RA_OF_ASC_NODE": 222.0626, "ARG_OF_PERICENTER": 335.5486, "MEAN_ANOMALY": 24.0827, "EPHEMERIS_TYPE": 0, "CLASSIFICATION_TYPE": "U", "NORAD_CAT_ID": 35902, "ELEMENT_SET_NO": 999, "REV_AT_EPOCH": 61228, "BSTAR": 0.00057286, "MEAN_MOTION_DOT": 1.445e-05, "MEAN_MOTION_DDOT": 0}, "tle": {"line1": "1 35902U 93036AUR 25353.63691948  .00001445  00000+0  57286-3 0  9998", "line2": "2 35902  73.9823 222.0626 0102282 335.5486  24.0827 14.26937143612284"}}, "geometry": {"type": "Point", "coordinates": [103.59743365042834, -72.74040941009572]}}, {"type": "Feature", "properties": {"norad_id": 35905, "name": "COSMOS 2251 DEB", "group": "cosmos-2251-debris", "lat": -3.170495015873747, "lon": -170.89238141048529, "alt_km": 571.2228162977453, "timestamp": "2025-12-22T23:36:21.113633+00:00", "meta": {"OBJECT_NAME": "COSMOS 2251 DEB", "OBJECT_ID": "1993-036AUU", "EPOCH": "2025-12-19T20:20:40.701984", "MEAN_MOTION": 14.99109626, "ECCENTRICITY": 0.00907234, "INCLINATION": 74.0303, "RA_OF_ASC_NODE": 196.3814, "ARG_OF_PERICENTER": 274.7905, "MEAN_ANOMALY": 84.2926, "EPHEMERIS_TYPE": 0, "CLASSIFICATION_TYPE": "U", "NORAD_CAT_ID": 35905, "ELEMENT_SET_NO": 999, "REV_AT_EPOCH": 88689, "BSTAR": 0.00038534717, "MEAN_MOTION_DOT": 5.062e-05, "MEAN_MOTION_DDOT": 0}, "tle": {"line1": "1 35905U 93036AUU 25353.84769331  .00005062  00000+0  38535-3 0  9991", "line2": "2 35905  74.0303 196.3814 0090723 274.7905  84.2926 14.99109626886895"}}, "geometry": {"type": "Point", "coordinates": [-170.89238141048529, -3.170495015873747]}}, {"type": "Feature", "properties": {"norad_id": 35959, "name": "COSMOS 2251 DEB", "group": "cosmos-2251-debris", "lat": -67.96452042784186, "lon": 158.33258082997295, "alt_km": 791.7918736995271, "timestamp": "2025-12-22T23:36:21.113643+00:00", "meta": {"OBJECT_NAME": "COSMOS 2251 DEB", "OBJECT_ID": "1993-036AUZ", "EPOCH": "2025-12-22T02:19:54.921216", "MEAN_MOTION": 14.34142228, "ECCENTRICITY": 0.00219687, "INCLINATION": 74.0331, "RA_OF_ASC_NODE": 294.9334, "ARG_OF_PERICENTER": 12.848, "MEAN_ANOMALY": 347.3227, "EPHEMERIS_TYPE": 0, "CLASSIFICATION_TYPE": "U", "NORAD_CAT_ID": 35959, "ELEMENT_SET_NO": 999, "REV_AT_EPOCH": 85062, "BSTAR": 0.0001152914, "MEAN_MOTION_DOT": 2.97e-06, "MEAN_MOTION_DDOT": 0}, "tle": {"line1": "1 35959U 93036AUZ 25356.09716344  .00000297  00000+0  11529-3 0  9995", "line2": "2 35959  74.0331 294.9334 0021968  12.8480 347.3227 14.34142228850624"}}, "geometry": {"type": "Point", "coordinates": [158.33258082997295, -67.96452042784186]}}, {"type": "Feature", "properties": {"norad_id": 35961, "name": "COSMOS 2251 DEB", "group": "cosmos-2251-debris", "lat": -28.951819763017273, "lon": 15.343579612729751, "alt_km": 884.342327159151, "timestamp": "2025-12-22T23:36:21.113654+00:00", "meta": {"OBJECT_NAME": "COSMOS 2251 DEB", "OBJECT_ID": "1993-036AVB", "EPOCH": "2025-12-18T21:15:12.372768", "MEAN_MOTION": 14.05418101, "ECCENTRICITY": 0.01915239, "INCLINATION": 73.9239, "RA_OF_ASC_NODE": 193.3704, "ARG_OF_PERICENTER": 125.5075, "MEAN_ANOMALY": 236.4097, "EPHEMERIS_TYPE": 0, "CLASSIFICATION_TYPE": "U", "NORAD_CAT_ID": 35961, "ELEMENT_SET_NO": 999, "REV_AT_EPOCH": 62768, "BSTAR": 0.0011788636, "MEAN_MOTION_DOT": 2.232e-05, "MEAN_MOTION_DDOT": 0}, "tle": {"line1": "1 35961U 93036AVB 25352.88555987  .00002232  00000+0  11789-2 0  9993", "line2": "2 35961  73.9239 193.3704 0191523 125.5075 236.4097 14.05418101627687"}}, "geometry": {"type": "Point", "coordinates": [15.343579612729751, -28.951819763017273]}}, {"type": "Feature", "properties": {"norad_id": 35979, "name": "COSMOS 2251 DEB", "group": "cosmos-2251-debris", "lat": 47.67972916812484, "lon": 19.98476804760018, "alt_km": 673.8865830886562, "timestamp": "2025-12-22T23:36:21.113664+00:00", "meta": {"OBJECT_NAME": "COSMOS 2251 DEB", "OBJECT_ID": "1993-036AVV", "EPOCH": "2025-12-22T09:10:43.717152", "MEAN_MOTION": 14.74742518, "ECCENTRICITY": 0.00592902, "INCLINATION": 74.0083, "RA_OF_ASC_NODE": 219.518, "ARG_OF_PERICENTER": 349.4199, "MEAN_ANOMALY": 189.6967, "EPHEMERIS_TYPE": 0, "CLASSIFICATION_TYPE": "U", "NORAD_CAT_ID": 35979, "ELEMENT_SET_NO": 999, "REV_AT_EPOCH": 88775, "BSTAR": 0.00081086995, "MEAN_MOTION_DOT": 5.548e-05, "MEAN_MOTION_DDOT": 0}, "tle": {"line1": "1 35979U 93036AVV 25356.38245043  .00005548  00000+0  81087-3 0  9992", "line2": "2 35979  74.0083 219.5180 0059290 349.4199 189.6967 14.74742518887751"}}, "geometry": {"type": "Point", "coordinates": [19.98476804760018, 47.67972916812484]}}]}